OBJECT_NAME,OBJECT_ID,EPOCH,MEAN_MOTION,ECCENTRICITY,INCLINATION,RA_OF_ASC_NODE,ARG_OF_PERICENTER,MEAN_ANOMALY,EPHEMERIS_TYPE,CLASSIFICATION_TYPE,NORAD_CAT_ID,ELEMENT_SET_NO,REV_AT_EPOCH,BSTAR,MEAN_MOTION_DOT,MEAN_MOTION_DDOT
GEOSCAN 3 (RS92S3),2025-155T,2026-07-15T14:22:38.500608,15.36318229,.00085991,97.4552,166.8291,86.2923,273.9304,0,U,64893,999,8521,.33365583E-3,.11751E-3,0
INNOSAT 3 (RS92S0),2025-155U,2026-07-15T14:50:25.896192,15.45840138,.00082813,97.4497,168.8406,89.7812,270.4386,0,U,64894,999,8535,.55859743E-3,.27099E-3,0
KNACKSAT-2,1998-067XZ,2026-07-15T06:12:31.865760,15.62408935,.00079923,51.6274,153.0107,328.5700,31.4815,0,U,67683,999,2466,.38021354E-3,.3405E-3,0
