GEOSCAN-3 (RS92S3)
1 64893U 25155T   26196.59905672  .00011751  00000-0  33366-3 0  9994
2 64893  97.4552 166.8291 0008599  86.2923 273.9304 15.36318229 85212
INNOSAT3 (RS92S0)
1 64894U 25155U   26196.61835528  .00027099  00000-0  55860-3 0  9995
2 64894  97.4497 168.8406 0008281  89.7812 270.4386 15.45840138 85350
KNACKSAT-2
1 67683U 98067XZ  26196.25870215  .00034050  00000-0  38021-3 0  9993
2 67683  51.6274 153.0107 0007992 328.5700  31.4815 15.62408935 24669
